#aV2023  6 12  0  0  0.00000000     288 DD+AD WGS84 FIT  NGA
## 2266  86400.00000000   300.00000000 60107 0.0000000000000
+   32     1  2  3  4  5  6  7  8  9 10 11 12 13 14 15 16 17
+         18 19 20 21 22 23 24 25 26 27 28 29 30 31 32  0  0
+          0  0  0  0  0  0  0  0  0  0  0  0  0  0  0  0  0
+          0  0  0  0  0  0  0  0  0  0  0  0  0  0  0  0  0
+          0  0  0  0  0  0  0  0  0  0  0  0  0  0  0  0  0
++         2  2  2  2  2  2  2  2  2  2  2  2  2  2  2  2  2
++         2  2  2  2  2  2  2  2  2  2  2  2  2  2  2  0  0
++         0  0  0  0  0  0  0  0  0  0  0  0  0  0  0  0  0
++         0  0  0  0  0  0  0  0  0  0  0  0  0  0  0  0  0
++         0  0  0  0  0  0  0  0  0  0  0  0  0  0  0  0  0
%c cc cc ccc ccc cccc cccc cccc cccc ccccc ccccc ccccc ccccc
%c cc cc ccc ccc cccc cccc cccc cccc ccccc ccccc ccccc ccccc
%f  0.0000000  0.000000000  0.00000000000  0.000000000000000
%f  0.0000000  0.000000000  0.00000000000  0.000000000000000
%i    0    0    0    0      0      0      0      0         0
%i    0    0    0    0      0      0      0      0         0
/*      NGA, ST. LOUIS,MO.                                  
/*   EPHEMERIS COMPUTED FROM 2 DAYS OF DATA                 
/*   EPOCHA v8 SMOOTHER                                     
/*   G2139 IERS2010 SATIGS SATAPC                           
*  2023  6 12 12  5  0.00000000
P  1  14141.774243 -20875.358417   7411.791582    178.873227                    
V  1  -1923.802850   9977.784785  30726.562983     -0.023992                    
P  2  15319.570742 -16980.755745  13885.856816   -586.495219                    
V  2  -3115.848879  16665.146296  24861.075505      0.035491                    
P  3  17886.807662 -12695.105990 -15026.182201   -273.060751                    
V  3  18900.147221   -965.519792  23642.130718      0.131734                    
P  4   7354.224643 -14606.389126 -20893.161463     66.281539                    
V  4  16325.986790  20989.815241  -9033.741350      0.102639                    
P  5 -26195.418849   4758.738842   -246.314791   -130.816341                    
V  5   -373.036593  -2514.200547 -31803.825862     -0.014648                    
P  6  -8509.713453 -14560.532473 -20433.893409    585.394261                    
V  6  10703.290560 -23741.739054  12517.078794     -0.018360                    
P  7   4623.861816 -25011.578860   7169.395109    154.297524                    
V  7   6309.074203  -6757.764040 -30033.373417     -0.100443                    
P  8  16142.281926  -3431.373476  20815.214673   -127.029763                    
V  8  16412.397753  20845.328332  -8872.661806     -0.018837                    
P  9  -2500.518971 -21001.504280 -16111.370564   -137.527267                    
V  9  14449.403667  14477.905266 -21250.805336      0.088316                    
P 10  13047.057924  11817.193300  20162.598748    -40.842396                    
V 10 -24708.893937   4273.837570  13300.608367     -0.016050                    
P 11 -16325.125670    789.833277 -20921.659248   -232.566040                    
V 11  10459.347736 -24442.415988  -9121.527462     -0.149578                    
P 12 -20911.074623  10392.693934 -12855.359322   -387.648467                    
V 12 -16013.202304  -1017.270031  25861.426712     -0.047045                    
P 13 -18020.090577  -5662.150058  18578.480607    532.963353                    
V 13 -10881.634772 -21276.910224 -16673.897691      0.051712                    
P 14  -9523.969096 -13826.446806  20628.110546     88.136476                    
V 14  25914.807617  -3727.811005   9318.054033      0.124111                    
P 15 -15479.344534   6026.067083  20311.860752     48.160058                    
V 15 -18748.698596 -19306.109012  -8114.769703      0.034918                    
P 16  26589.636612   1055.563999  -3531.252138   -492.229159                    
V 16  -3927.704092   2445.983962 -31148.584113      0.038056                    
P 17 -13243.850642 -22815.436989   2959.716659    718.110071                    
V 17   3847.463193   1286.927666  31824.315076      0.011927                    
P 18  -3274.155432  24445.973213   9639.273906   -304.566620                    
V 18  -6906.864898  10402.938887 -28875.793160     -0.150893                    
P 19 -17074.307613 -19754.361057  -5921.706841    329.562946                    
V 19  -2044.480855  -7161.888539  30649.940043      0.051128                    
P 20 -24576.250836    484.570123  -9777.761909    428.426164                    
V 20  11041.714472  -6673.171884 -28171.368538     -0.020790                    
P 21  16021.172589 -13570.217216  16263.100219    153.163829                    
V 21  -3692.540499  19796.837133  21714.734558     -0.003324                    
P 22  18144.143804  17637.969452  -7875.509741    496.665504                    
V 22   3671.826693  10238.618149  29532.489731      0.059787                    
P 23   -719.783945  15138.155023  21802.675416     32.480533                    
V 23 -27314.252307   4297.752601  -4037.708706      0.035749                    
P 24 -14590.297967  18395.211787  11643.321285   -222.211104                    
V 24   1187.011771 -15893.121322  26224.348828     -0.131540                    
P 25  -9143.958754  15569.220520 -19706.161541    449.291477                    
V 25 -24380.847337   2365.948934  13657.916867      0.025334                    
P 26  21700.109021   6254.662444 -14361.733741    239.198893                    
V 26 -17074.054231   6130.221089 -22976.922042     -0.008120                    
P 27  20060.841977   8474.093539  15231.149196     18.033888                    
V 27  10829.838748  16441.246044 -22629.741728     -0.076648                    
P 28   8356.279766  16327.230353 -19233.674631     83.022040                    
V 28  -9557.867451  22460.438311  14925.701708      0.010334                    
P 29  -1075.738848  19857.121120 -17615.336966   -602.548799                    
V 29 -13542.774247 -17720.215902 -19297.564515     -0.011574                    
P 30  -3349.610418 -21419.407748  15279.150085   -511.514976                    
V 30   9871.957680 -16888.347868 -21941.667888      0.024282                    
P 31  14972.111973   4170.520321 -21730.856592   -218.012546                    
V 31 -10704.447674  24989.154202  -2179.064221     -0.008057                    
P 32  16296.586376  21107.643420    597.463882   -498.497082                    
V 32  -2435.713801   1255.090728  31586.464325     -0.085217                    
EOF
